NORAD_CAT_ID,OBJECT_NAME,OBJECT_TYPE,EPOCH,MEAN_MOTION,ECCENTRICITY,INCLINATION,RA_OF_ASC_NODE,ARG_OF_PERICENTER,MEAN_ANOMALY,BSTAR,MEAN_MOTION_DOT,MEAN_MOTION_DDOT,TLE_LINE0,TLE_LINE1,TLE_LINE2,SEMIMAJOR_AXIS,PERIOD,APOGEE,PERIGEE,DECAYED
56816.0,STARLINK-6067,PAYLOAD,2023-12-13 00:00:00,15.18455238,0.0003216,70.0001,226.3617,269.6585,168.2277,-0.047287,-0.00905834,0.0,0 STARLINK-6067,1 56816U 23078BB  23347.00001157 -.00905834  00000-0 -47287-1 0  9999,2 56816  70.0001 226.3617 0003216 269.6585 168.2277 15.18455238  5927,6888.646,94.833,512.726,508.295,0.0
56816.0,STARLINK-6067,PAYLOAD,2023-12-13 14:00:01,15.17296153,0.0003326,69.9996,224.8458,262.8625,121.6707,-0.046789,-0.0086949,0.0,0 STARLINK-6067,1 56816U 23078BB  23347.58334491 -.00869490  00000-0 -46789-1 0  9995,2 56816  69.9996 224.8458 0003326 262.8625 121.6707 15.17296153  6015,6892.153,94.906,516.311,511.726,0.0
56816.0,STARLINK-6067,PAYLOAD,2023-12-13 22:00:00,15.16673658,0.0003326,69.9997,223.9806,267.3061,137.0872,-0.051146,-0.00928973,0.0,0 STARLINK-6067,1 56816U 23078BB  23347.91667824 -.00928973  00000-0 -51146-1 0  9996,2 56816  69.9997 223.9806 0003326 267.3061 137.0872 15.16673658  5771,6894.039,94.945,518.197,513.611,0.0
56816.0,STARLINK-6067,PAYLOAD,2023-12-14 06:00:00,15.16041516,0.0003203,69.9992,223.1165,269.6612,153.8067,-0.054079,-0.00961938,0.0,0 STARLINK-6067,1 56816U 23078BB  23348.25001157 -.00961938  00000-0 -54079-1 0  9991,2 56816  69.9992 223.1165 0003203 269.6612 153.8067 15.16041516 31130,6895.955,94.984,520.029,515.612,0.0
56816.0,STARLINK-6067,PAYLOAD,2023-12-14 14:00:01,15.15343087,0.0003217,69.9993,222.2532,263.6038,178.1744,-0.0498,-0.00874777,0.0,0 STARLINK-6067,1 56816U 23078BB  23348.58334491 -.00874777  00000-0 -49800-1 0  9997,2 56816  69.9993 222.2532 0003217 263.6038 178.1744 15.15343087  5871,6898.074,95.028,522.158,517.72,0.0
56816.0,STARLINK-6067,PAYLOAD,2023-12-14 20:00:01,15.14895662,0.0003327,69.9994,221.6061,265.3344,99.6465,-0.055167,-0.00950721,0.0,0 STARLINK-6067,1 56816U 23078BB  23348.83334491 -.00950721  00000-0 -55167-1 0  9992,2 56816  69.9994 221.6061 0003327 265.3344  99.6465 15.14895662 31228,6899.432,95.056,523.593,519.002,0.0
56816.0,STARLINK-6067,PAYLOAD,2023-12-14 22:00:01,15.14713671,0.0003233,69.9993,221.3906,267.9454,191.4122,-0.053802,-0.00924457,0.0,0 STARLINK-6067,1 56816U 23078BB  23348.91668981 -.00924457  00000-0 -53802-1 0  9996,2 56816  69.9993 221.3906 0003233 267.9454 191.4122 15.14713671  5926,6899.985,95.067,524.081,519.619,0.0
56816.0,STARLINK-6067,PAYLOAD,2023-12-15 14:00:01,15.13390634,0.000314,69.999,219.6683,263.1187,228.864,-0.053049,-0.00881287,0.0,0 STARLINK-6067,1 56816U 23078BB  23349.58334491 -.00881287  00000-0 -53049-1 0  9992,2 56816  69.9990 219.6683 0003140 263.1187 228.8640 15.13390634 31336,6904.006,95.151,528.039,523.703,0.0
56816.0,STARLINK-6067,PAYLOAD,2023-12-15 22:00:00,15.1275336,0.0003183,69.999,218.8084,267.5491,239.6061,-0.056512,-0.0091921,0.0,0 STARLINK-6067,1 56816U 23078BB  23349.91667824 -.00919210  00000-0 -56512-1 0  9994,2 56816  69.9990 218.8084 0003183 267.5491 239.6061 15.12753360  5803,6905.945,95.191,530.008,525.611,0.0
56816.0,STARLINK-6067,PAYLOAD,2023-12-16 06:00:02,15.12127598,0.0003038,69.9987,217.9492,267.7653,253.8316,-0.060473,-0.00962936,0.0,0 STARLINK-6067,1 56816U 23078BB  23350.25002315 -.00962936  00000-0 -60473-1 0  9995,2 56816  69.9987 217.9492 0003038 267.7653 253.8316 15.12127598 31441,6907.85,95.23,531.813,527.616,0.0
56816.0,STARLINK-6067,PAYLOAD,2023-12-16 14:00:01,15.11437972,0.0003089,69.999,217.0911,261.8123,273.3341,-0.056427,-0.00887107,0.0,0 STARLINK-6067,1 56816U 23078BB  23350.58334491 -.00887107  00000-0 -56427-1 0  9994,2 56816  69.9990 217.0911 0003089 261.8123 273.3341 15.11437972  5901,6909.951,95.274,533.95,529.681,0.0
56816.0,STARLINK-6067,PAYLOAD,2023-12-16 22:00:00,15.107935,0.0003141,69.999,216.2337,266.6285,281.3464,-0.059299,-0.00913651,0.0,0 STARLINK-6067,1 56816U 23078BB  23350.91667824 -.00913651  00000-0 -59299-1 0  9994,2 56816  69.9990 216.2337 0003141 266.6285 281.3464 15.10793500 31540,6911.916,95.314,535.952,531.61,0.0
56816.0,STARLINK-6067,PAYLOAD,2023-12-17 14:00:01,15.09484545,0.0003122,69.9991,214.5215,260.4123,310.921,-0.05991,-0.00891907,0.0,0 STARLINK-6067,1 56816U 23078BB  23351.58335648 -.00891907  00000-0 -59910-1 0  9993,2 56816  69.9991 214.5215 0003122 260.4123 310.9210 15.09484545  5968,6915.911,95.397,539.935,535.617,0.0
56816.0,STARLINK-6067,PAYLOAD,2023-12-17 22:00:00,15.08834491,0.0003168,69.9992,213.6667,265.6027,316.1513,-0.062321,-0.00909962,0.0,0 STARLINK-6067,1 56816U 23078BB  23351.91667824 -.00909962  00000-0 -62321-1 0  9995,2 56816  69.9992 213.6667 0003168 265.6027 316.1513 15.08834491 31691,6917.897,95.438,541.954,537.571,0.0
56816.0,STARLINK-6067,PAYLOAD,2023-12-18 14:00:01,15.075311,0.0003173,69.9993,211.9597,259.3964,340.9571,-0.063525,-0.00896107,0.0,0 STARLINK-6067,1 56816U 23078BB  23352.58334491 -.00896107  00000-0 -63525-1 0  9993,2 56816  69.9993 211.9597 0003173 259.3964 340.9571 15.07531100  5983,6921.884,95.52,545.945,541.553,0.0
56816.0,STARLINK-6067,PAYLOAD,2023-12-18 22:00:01,15.06876069,0.0003204,69.9995,211.1074,264.787,343.7679,-0.065524,-0.00907117,0.0,0 STARLINK-6067,1 56816U 23078BB  23352.91668981 -.00907117  00000-0 -65524-1 0  9999,2 56816  69.9995 211.1074 0003204 264.7870 343.7679 15.06876069 31847,6923.89,95.562,547.973,543.536,0.0
56816.0,STARLINK-6067,PAYLOAD,2023-12-19 14:00:01,15.05577864,0.0003229,69.9996,209.4057,258.7072,3.6887,-0.067326,-0.00900385,0.0,0 STARLINK-6067,1 56816U 23078BB  23353.58334491 -.00900385  00000-0 -67326-1 0  9991,2 56816  69.9996 209.4057 0003229 258.7072   3.6887 15.05577864  5982,6927.869,95.644,551.971,547.497,0.0
56816.0,STARLINK-6067,PAYLOAD,2023-12-19 22:00:00,15.04917307,0.000324,69.9997,208.5561,264.273,3.9168,-0.068801,-0.00903626,0.0,0 STARLINK-6067,1 56816U 23078BB  23353.91667824 -.00903626  00000-0 -68801-1 0  9997,2 56816  69.9997 208.5561 0003240 264.2730   3.9168 15.04917307 31993,6929.897,95.686,554.007,549.516,0.0
56816.0,STARLINK-6067,PAYLOAD,2023-12-20 14:00:01,15.03624763,0.0003265,69.9998,206.8595,258.5252,18.8728,-0.071375,-0.00905367,0.0,0 STARLINK-6067,1 56816U 23078BB  23354.58334491 -.00905367  00000-0 -71375-1 0  9996,2 56816  69.9998 206.8595 0003265 258.5252  18.8728 15.03624763  5981,6933.867,95.769,557.996,553.468,0.0
56816.0,STARLINK-6067,PAYLOAD,2023-12-20 22:00:00,15.0295834,0.0003265,69.9999,206.0124,264.2554,16.5913,-0.072125,-0.00899235,0.0,0 STARLINK-6067,1 56816U 23078BB  23354.91667824 -.00899235  00000-0 -72125-1 0  9992,2 56816  69.9999 206.0124 0003265 264.2554  16.5913 15.02958340 32140,6935.917,95.811,560.046,555.517,0.0
56816.0,STARLINK-6067,PAYLOAD,2023-12-21 14:00:01,15.01671272,0.0003279,70.0,204.3211,258.5431,26.8154,-0.075687,-0.00911014,0.0,0 STARLINK-6067,1 56816U 23078BB  23355.58334491 -.00911014  00000-0 -75687-1 0  9993,2 56816  70.0000 204.3211 0003279 258.5431  26.8154 15.01671272 32246,6939.879,95.893,564.02,559.469,0.0
56816.0,STARLINK-6067,PAYLOAD,2023-12-21 22:00:01,15.00998841,0.0003225,69.9998,203.4766,264.5924,21.9348,-0.075348,-0.00892399,0.0,0 STARLINK-6067,1 56816U 23078BB  23355.91668981 -.00892399  00000-0 -75348-1 0  9992,2 56816  69.9998 203.4766 0003225 264.5924  21.9348 15.00998841  5984,6941.952,95.936,566.056,561.578,0.0
56816.0,STARLINK-6067,PAYLOAD,2023-12-22 06:00:00,15.00379486,0.0003246,69.9996,202.633,262.8696,23.8918,-0.082754,-0.00969976,0.0,0 STARLINK-6067,1 56816U 23078BB  23356.25001157 -.00969976  00000-0 -82754-1 0  9991,2 56816  69.9996 202.6330 0003246 262.8696  23.8918 15.00379486 32342,6943.862,95.976,567.981,563.473,0.0
56816.0,STARLINK-6067,PAYLOAD,2023-12-22 14:00:01,14.99538399,0.0003318,69.9999,201.7904,260.7349,25.575,-0.027641,-0.00325142,0.0,0 STARLINK-6067,1 56816U 23078BB  23356.58334491 -.00325142  00000-0 -27641-1 0  9992,2 56816  69.9999 201.7904 0003318 260.7349  25.5750 14.99538399 32399,6946.459,96.03,570.628,566.019,0.0
56816.0,STARLINK-6067,PAYLOAD,2023-12-22 22:00:00,14.99286882,0.0003313,69.9996,200.9486,266.8017,18.2983,0.0012828,0.00015632,0.0,0 STARLINK-6067,1 56816U 23078BB  23356.91667824  .00015632  00000-0  12828-2 0  9998,2 56816  69.9996 200.9486 0003313 266.8017  18.2983 14.99286882 32446,6947.235,96.046,571.402,566.799,0.0
56816.0,STARLINK-6067,PAYLOAD,2023-12-23 14:00:01,14.99299019,0.0003277,69.9997,199.2653,261.9794,20.3793,0.00032156,3.843e-05,0.0,0 STARLINK-6067,1 56816U 23078BB  23357.58334491  .00003843  00000-0  32156-3 0  9991,2 56816  69.9997 199.2653 0003277 261.9794  20.3793 14.99299019 32540,6947.198,96.045,571.339,566.786,0.0
56816.0,STARLINK-6067,PAYLOAD,2023-12-23 22:00:00,14.99277038,0.0003204,69.9994,198.4236,268.6536,12.3575,0.0027265,0.00033406,0.0,0 STARLINK-6067,1 56816U 23078BB  23357.91667824  .00033406  00000-0  27265-2 0  9999,2 56816  69.9994 198.4236 0003204 268.6536  12.3575 14.99277038  5752,6947.266,96.046,571.357,566.905,0.0
56816.0,STARLINK-6067,PAYLOAD,2023-12-24 14:00:01,14.99313143,0.0003175,69.9994,196.7403,262.2972,15.987,-0.00030548,-3.831e-05,0.0,0 STARLINK-6067,1 56816U 23078BB  23358.58334491 -.00003831  00000-0 -30548-3 0  9994,2 56816  69.9994 196.7403 0003175 262.2972  15.9870 14.99313143  5856,6947.154,96.044,571.225,566.814,0.0
56816.0,STARLINK-6067,PAYLOAD,2023-12-24 22:00:00,14.99448658,0.0003111,69.9994,195.8985,267.188,9.7454,-0.079795,-0.0090624,0.0,0 STARLINK-6067,1 56816U 23078BB  23358.91667824 -.00906240  00000-0 -79795-1 0  9991,2 56816  69.9994 195.8985 0003111 267.1880   9.7454 14.99448658 32740,6946.736,96.035,570.762,566.44,0.0
56816.0,STARLINK-6067,PAYLOAD,2023-12-25 14:00:01,14.9834682,0.0003052,69.9997,194.2163,262.5122,10.5338,-0.0013943,-0.00016697,0.0,0 STARLINK-6067,1 56816U 23078BB  23359.58334491 -.00016697  00000-0 -13943-2 0  9998,2 56816  69.9997 194.2163 0003052 262.5122  10.5338 14.98346820 32845,6950.141,96.106,574.127,569.885,0.0
